[{"OBJECT_NAME":"STARLINK-34428","OBJECT_ID":"2025-123C","EPOCH":"2026-03-09T16:54:24.343488","MEAN_MOTION":14.98337283,"ECCENTRICITY":0.0003157,"INCLINATION":70.003,"RA_OF_ASC_NODE":194.3014,"ARG_OF_PERICENTER":272.9746,"MEAN_ANOMALY":87.1052,"EPHEMERIS_TYPE":0,"CLASSIFICATION_TYPE":"U","NORAD_CAT_ID":64293,"ELEMENT_SET_NO":999,"REV_AT_EPOCH":4284,"BSTAR":0.00064668709,"MEAN_MOTION_DOT":7.633e-5,"MEAN_MOTION_DDOT":0},{"OBJECT_NAME":"COSMOS 886 DEB","OBJECT_ID":"1976-126V","EPOCH":"2026-03-09T04:45:19.528416","MEAN_MOTION":13.26844091,"ECCENTRICITY":0.07774068,"INCLINATION":65.8234,"RA_OF_ASC_NODE":351.6827,"ARG_OF_PERICENTER":207.9099,"MEAN_ANOMALY":147.8123,"EPHEMERIS_TYPE":0,"CLASSIFICATION_TYPE":"U","NORAD_CAT_ID":9724,"ELEMENT_SET_NO":999,"REV_AT_EPOCH":32432,"BSTAR":0.00062923961,"MEAN_MOTION_DOT":1.446e-5,"MEAN_MOTION_DDOT":0}]
